BEIDOU-2 IGSO-1 (C06)   
1 36828U 10036A   25087.92097250 -.00000107  00000+0  00000+0 0  9990
2 36828  54.2665 166.9908 0046170 211.7421 242.8611  1.00248251 53760
BEIDOU-2 G4 (C04)       
1 37210U 10057A   25088.78554141 -.00000114  00000+0  00000+0 0  9999
2 37210   2.5433  70.4352 0006462 206.9165 352.8599  1.00270494 52836
BEIDOU-2 IGSO-2 (C07)   
1 37256U 10068A   25086.95322538 -.00000180  00000+0  00000+0 0  9994
2 37256  48.3560 277.3408 0039596 210.9853 147.8656  1.00261049 52313
BEIDOU-2 IGSO-3 (C08)   
1 37384U 11013A   25088.81259622 -.00000186  00000+0  00000+0 0  9993
2 37384  61.7795  44.3647 0030027 182.6865   0.8328  1.00285636 51208
BEIDOU-2 IGSO-4 (C09)   
1 37763U 11038A   25082.70190369 -.00000060  00000+0  00000+0 0  9996
2 37763  54.5715 169.7029 0137042 229.6463 126.0160  1.00250470 50121
BEIDOU-2 IGSO-5 (C10)   
1 37948U 11073A   25086.48747541 -.00000118  00000+0  00000+0 0  9993
2 37948  48.4938 277.0481 0101566 219.3452 320.2434  1.00266963 48927
BEIDOU-2 G5 (C05)       
1 38091U 12008A   25088.97777813  .00000056  00000+0  00000+0 0  9993
2 38091   2.4660  71.2371 0012416 257.6304 269.5448  1.00266848 47917
BEIDOU-2 M3 (C11)       
1 38250U 12018A   25086.44272987 -.00000034  00000+0  00000+0 0  9990
2 38250  56.1295 319.8872 0021268 273.3188  86.4970  1.86233582 87622
BEIDOU-2 M4 (C12)       
1 38251U 12018B   25086.91113890 -.00000034  00000+0  00000+0 0  9990
2 38251  56.0334 319.1214 0012294 279.6034  80.3161  1.86232018 87636
BEIDOU-2 M6 (C14)       
1 38775U 12050B   25086.08409456  .00000041  00000+0  00000+0 0  9998
2 38775  56.1517  77.7225 0014478 336.8523  23.1009  1.86230922 84988
BEIDOU-2 G6 (C02)       
1 38953U 12059A   25088.89664973 -.00000176  00000+0  00000+0 0  9993
2 38953   3.2900  78.0566 0010383 304.3298 211.9792  1.00270637 45455
BEIDOU-3S IGSO-1S (C31) 
1 40549U 15019A   25088.05796666 -.00000138  00000+0  00000+0 0  9997
2 40549  50.0362 300.8042 0037357 191.6112 166.9027  1.00294489 36606
BEIDOU-3S M2S (C58)     
1 40748U 15037A   25085.50248905 -.00000029  00000+0  00000+0 0  9992
2 40748  55.2585 317.4116 0008521 269.3841  90.5758  1.86229118 65785
BEIDOU-3S M1S (C57)     
1 40749U 15037B   25086.84099597 -.00000033  00000+0  00000+0 0  9997
2 40749  55.2537 317.3587 0004404  16.1792 343.8919  1.86253683 65814
BEIDOU-2 IGSO-6 (C13)   
1 41434U 16021A   25088.84366433 -.00000154  00000+0  00000+0 0  9995
2 41434  59.6026  42.4724 0052825 230.2676 312.7751  1.00259023 33012
BEIDOU-2 G7 (C03)       
1 41586U 16037A   25088.89392600 -.00000356  00000+0  00000+0 0  9994
2 41586   1.5707  67.7874 0010329 335.5703 216.5243  1.00272271  2430
BEIDOU-3 M1 (C19)       
1 43001U 17069A   25088.53458381  .00000020  00000+0  00000+0 0  9991
2 43001  56.3033  77.7744 0012522 306.8410  53.0473  1.86231048 50325
BEIDOU-3 M2 (C20)       
1 43002U 17069B   25087.93542942  .00000026  00000+0  00000+0 0  9998
2 43002  56.3021  77.8302 0010125 325.7711  34.1710  1.86230819 50302
BEIDOU-3 M7 (C27)       
1 43107U 18003A   25087.14503112 -.00000037  00000+0  00000+0 0  9995
2 43107  54.7154 317.8216 0004849  66.9824 293.1247  1.86232327 49040
BEIDOU-3 M8 (C28)       
1 43108U 18003B   25088.16169974 -.00000043  00000+0  00000+0 0  9990
2 43108  54.7075 317.7703 0002856 284.6641  75.3576  1.86230796 49071
BEIDOU-3 M4 (C22)       
1 43207U 18018A   25087.52885113  .00000030  00000+0  00000+0 0  9990
2 43207  56.2611  77.8874 0007234 345.6060  14.3837  1.86230975 48447
BEIDOU-3 M3 (C21)       
1 43208U 18018B   25088.13232157  .00000024  00000+0  00000+0 0  9996
2 43208  56.2610  77.8713 0010164 316.5018  43.4242  1.86231025 48456
BEIDOU-3 M9 (C29)       
1 43245U 18029A   25088.88801777 -.00000045  00000+0  00000+0 0  9995
2 43245  54.5888 315.4406 0000791  10.4907 349.5599  1.86232344 47625
BEIDOU-3 M10 (C30)      
1 43246U 18029B   25085.06047255 -.00000026  00000+0  00000+0 0  9995
2 43246  54.5896 315.6009 0004984  18.7175 341.3571  1.86228965 47536
BEIDOU-2 IGSO-7 (C16)   
1 43539U 18057A   25088.81908706 -.00000119  00000+0  00000+0 0  9997
2 43539  55.1570 166.9113 0087027 235.4637 193.0178  1.00280800 24677
BEIDOU-3 M5 (C23)       
1 43581U 18062A   25087.97065882  .00000015  00000+0  00000+0 0  9999
2 43581  54.1052 197.4417 0002610 286.3336  73.6308  1.86228425 45344
BEIDOU-3 M6 (C24)       
1 43582U 18062B   25087.83506422  .00000014  00000+0  00000+0 0  9994
2 43582  54.1049 197.4355 0005177  35.1710 324.8554  1.86229175 45346
BEIDOU-3 M12 (C26)      
1 43602U 18067A   25087.77014711  .00000014  00000+0  00000+0 0  9990
2 43602  54.1975 196.1453 0007661  33.0279 327.0147  1.86227739 44828
BEIDOU-3 M11 (C25)      
1 43603U 18067B   25085.75611696  .00000000  00000+0  00000+0 0  9997
2 43603  54.1951 196.1779 0004285  25.1171 334.8907  1.86227242 44814
BEIDOU-3 M13 (C32)      
1 43622U 18072A   25087.32651947  .00000031  00000+0  00000+0 0  9996
2 43622  56.2333  77.4169 0009063 305.3425  54.5836  1.86231126 44352
BEIDOU-3 M14 (C33)      
1 43623U 18072B   25087.19200190  .00000033  00000+0  00000+0 0  9994
2 43623  56.2350  77.4149 0006726 325.5341  34.4340  1.86231130 44345
BEIDOU-3 M16 (C35)      
1 43647U 18078A   25088.42657095 -.00000042  00000+0  00000+0 0  9994
2 43647  54.4856 315.5314 0008203  25.3482 334.7429  1.86232154 43873
BEIDOU-3 M15 (C34)      
1 43648U 18078B   25088.55581060 -.00000043  00000+0  00000+0 0  9998
2 43648  54.4812 315.5287 0005201  34.4061 325.6779  1.86232075 43895
BEIDOU-3 G1 (C59)       
1 43683U 18085A   25088.85304741 -.00000278  00000+0  00000+0 0  9997
2 43683   2.9051 100.1647 0002914 354.9630 179.5095  1.00272500 23602
BEIDOU-3 M17 (C36)      
1 43706U 18093A   25082.80347592  .00000001  00000+0  00000+0 0  9995
2 43706  54.1893 197.5765 0007439 288.2875  71.6194  1.86228360 43152
BEIDOU-3 M18 (C37)      
1 43707U 18093B   25085.88826552  .00000000  00000+0  00000+0 0  9994
2 43707  54.1897 197.4635 0006054 325.5014  34.4441  1.86229653 43208
BEIDOU-3 IGSO-1 (C38)   
1 44204U 19023A   25088.77702714 -.00000218  00000+0  00000+0 0  9997
2 44204  58.0672  42.2422 0021583 227.4337 316.8014  1.00268565  2757
BEIDOU-2 G8 (C01)       
1 44231U 19027A   25088.85391622 -.00000249  00000+0  00000+0 0  9996
2 44231   1.4901  74.6819 0005542 253.1760 311.5805  1.00270085 21623
BEIDOU-3 IGSO-2 (C39)   
1 44337U 19035A   25088.61606991 -.00000117  00000+0  00000+0 0  9998
2 44337  55.1994 162.7659 0035590 207.4721 155.9929  1.00295595 21219
BEIDOU-3 M24 (C46)      
1 44542U 19061A   25085.95884841  .00000001  00000+0  00000+0 0  9992
2 44542  54.4163 197.8117 0007731   8.5942 351.4032  1.86228924 37464
BEIDOU-3 M23 (C45)      
1 44543U 19061B   25088.96240551  .00000022  00000+0  00000+0 0  9994
2 44543  54.4146 197.6790 0004415 356.7102 129.6994  1.86228977 37520
BEIDOU-3 IGSO-3 (C40)   
1 44709U 19073A   25087.94166900 -.00000162  00000+0  00000+0 0  9999
2 44709  55.5633 285.6904 0042428 181.6027 178.3776  1.00269884 19997
BEIDOU-3 M22 (C44)      
1 44793U 19078A   25088.48690253 -.00000042  00000+0  00000+0 0  9997
2 44793  54.3326 315.4263 0007155  31.7487 328.3448  1.86231934 36361
BEIDOU-3 M21 (C43)      
1 44794U 19078B   25088.08158205 -.00000040  00000+0  00000+0 0  9998
2 44794  54.3065 315.4105 0005176  27.8055 332.2740  1.86227592 36369
BEIDOU-3 M19 (C41)      
1 44864U 19090A   25087.22320922  .00000032  00000+0  00000+0 0  9992
2 44864  56.1672  77.5760 0020141 287.6257  50.0685  1.86231392 35920
BEIDOU-3 M20 (C42)      
1 44865U 19090B   25087.39430611  .00000031  00000+0  00000+0 0  9997
2 44865  56.1688  77.6040 0017810 299.3380 242.7447  1.86231323 35915
BEIDOU-3 G2 (C60)       
1 45344U 20017A   25088.89462726 -.00000143  00000+0  00000+0 0  9994
2 45344   2.7377  38.6296 0002883 322.6524 228.3480  1.00271904 18805
BEIDOU-3 G3 (C61)       
1 45807U 20040A   25088.89232929 -.00000356  00000+0  00000+0 0  9990
2 45807   1.3754  61.8792 0002834 316.8570 240.5582  1.00273695 17610
BEIDOU-3 G4 (C62)       
1 56564U 23066A   25088.78554141 -.00000117  00000+0  00000+0 0  9999
2 56564   1.4176 290.7137 0002151 206.3326 133.1463  1.00270054  6935
BEIDOU-3 M28 (C50)      
1 58654U 23207A   25087.62526705  .00000026  00000+0  00000+0 0  9993
2 58654  55.3552  77.3808 0004979 299.5815  60.3781  1.86231925  8545
BEIDOU-3 M26 (C48)      
1 58655U 23207B   25086.35105171  .00000037  00000+0  00000+0 0  9995
2 58655  55.3561  77.4100 0005597 284.4512  75.5038  1.86231457  8505
BEIDOU-3 M25 (C47)      
1 61186U 24168B   25088.86578986 -.00000047  00000+0  00000+0 0  9993
2 61186  54.8593 317.6365 0004164 308.6425  55.5093  1.86229790  3512
BEIDOU-3 M27 (C49)      
1 61187U 24168C   25088.39558742 -.00000044  00000+0  00000+0 0  9997
2 61187  54.8552 317.6375 0002717  14.5799 169.1867  1.86229964   979
